[{"OBJECT_NAME":"FLOCK 4BE-29","OBJECT_ID":"2024-149AT","EPOCH":"2026-03-05T04:17:59.163936","MEAN_MOTION":15.40201077,"ECCENTRICITY":0.00019414,"INCLINATION":97.3853,"RA_OF_ASC_NODE":148.763,"ARG_OF_PERICENTER":314.0175,"MEAN_ANOMALY":46.0911,"EPHEMERIS_TYPE":0,"CLASSIFICATION_TYPE":"U","NORAD_CAT_ID":60509,"ELEMENT_SET_NO":999,"REV_AT_EPOCH":8638,"BSTAR":0.00068265666,"MEAN_MOTION_DOT":0.00027397,"MEAN_MOTION_DDOT":0},{"OBJECT_NAME":"TRANSPORTER-11 OBJECT AU","OBJECT_ID":"2024-149AU","EPOCH":"2026-03-05T04:51:51.806016","MEAN_MOTION":15.37052402,"ECCENTRICITY":0.00025979,"INCLINATION":97.378,"RA_OF_ASC_NODE":147.3163,"ARG_OF_PERICENTER":312.2288,"MEAN_ANOMALY":47.8736,"EPHEMERIS_TYPE":0,"CLASSIFICATION_TYPE":"U","NORAD_CAT_ID":60510,"ELEMENT_SET_NO":999,"REV_AT_EPOCH":8632,"BSTAR":0.0005281528,"MEAN_MOTION_DOT":0.00019093,"MEAN_MOTION_DDOT":0},{"OBJECT_NAME":"FLOCK 4BE-2","OBJECT_ID":"2024-149AV","EPOCH":"2026-03-05T05:16:06.392352","MEAN_MOTION":15.4274001,"ECCENTRICITY":0.00026713,"INCLINATION":97.3857,"RA_OF_ASC_NODE":149.3645,"ARG_OF_PERICENTER":291.028,"MEAN_ANOMALY":69.0682,"EPHEMERIS_TYPE":0,"CLASSIFICATION_TYPE":"U","NORAD_CAT_ID":60511,"ELEMENT_SET_NO":999,"REV_AT_EPOCH":8642,"BSTAR":0.0011334113,"MEAN_MOTION_DOT":0.00049687,"MEAN_MOTION_DDOT":0},{"OBJECT_NAME":"FLOCK 4BE-13","OBJECT_ID":"2024-149AW","EPOCH":"2026-03-05T05:15:34.822656","MEAN_MOTION":15.3861822,"ECCENTRICITY":0.00034286,"INCLINATION":97.3769,"RA_OF_ASC_NODE":147.7732,"ARG_OF_PERICENTER":286.0348,"MEAN_ANOMALY":74.0519,"EPHEMERIS_TYPE":0,"CLASSIFICATION_TYPE":"U","NORAD_CAT_ID":60512,"ELEMENT_SET_NO":999,"REV_AT_EPOCH":8636,"BSTAR":0.00058605987,"MEAN_MOTION_DOT":0.00022309,"MEAN_MOTION_DDOT":0},{"OBJECT_NAME":"FLOCK 4BE-27","OBJECT_ID":"2024-149AX","EPOCH":"2026-03-05T04:23:16.724544","MEAN_MOTION":15.32469971,"ECCENTRICITY":0.00029412,"INCLINATION":97.3876,"RA_OF_ASC_NODE":146.1156,"ARG_OF_PERICENTER":329.1152,"MEAN_ANOMALY":30.9916,"EPHEMERIS_TYPE":0,"CLASSIFICATION_TYPE":"U","NORAD_CAT_ID":60513,"ELEMENT_SET_NO":999,"REV_AT_EPOCH":8620,"BSTAR":0.00042626338,"MEAN_MOTION_DOT":0.00013296,"MEAN_MOTION_DDOT":0},{"OBJECT_NAME":"FLOCK 4BE-9","OBJECT_ID":"2024-149AY","EPOCH":"2026-03-05T04:49:29.272800","MEAN_MOTION":15.37398865,"ECCENTRICITY":0.00016315,"INCLINATION":97.3836,"RA_OF_ASC_NODE":147.7072,"ARG_OF_PERICENTER":323.6072,"MEAN_ANOMALY":36.5062,"EPHEMERIS_TYPE":0,"CLASSIFICATION_TYPE":"U","NORAD_CAT_ID":60514,"ELEMENT_SET_NO":999,"REV_AT_EPOCH":8632,"BSTAR":0.000555759,"MEAN_MOTION_DOT":0.00020323,"MEAN_MOTION_DDOT":0},{"OBJECT_NAME":"FLOCK 4BE-8","OBJECT_ID":"2024-149AZ","EPOCH":"2026-03-05T05:25:39.394560","MEAN_MOTION":15.76005804,"ECCENTRICITY":0.00047838,"INCLINATION":97.368,"RA_OF_ASC_NODE":150.7389,"ARG_OF_PERICENTER":241.6358,"MEAN_ANOMALY":118.4426,"EPHEMERIS_TYPE":0,"CLASSIFICATION_TYPE":"U","NORAD_CAT_ID":60515,"ELEMENT_SET_NO":999,"REV_AT_EPOCH":8655,"BSTAR":0.0019832052,"MEAN_MOTION_DOT":0.00318118,"MEAN_MOTION_DDOT":0},{"OBJECT_NAME":"FLOCK 4BE-6","OBJECT_ID":"2024-149BA","EPOCH":"2026-03-05T05:19:31.822176","MEAN_MOTION":15.36444505,"ECCENTRICITY":0.00023105,"INCLINATION":97.3841,"RA_OF_ASC_NODE":147.2598,"ARG_OF_PERICENTER":313.4115,"MEAN_ANOMALY":46.6936,"EPHEMERIS_TYPE":0,"CLASSIFICATION_TYPE":"U","NORAD_CAT_ID":60516,"ELEMENT_SET_NO":999,"REV_AT_EPOCH":8629,"BSTAR":0.00054120065,"MEAN_MOTION_DOT":0.00019187,"MEAN_MOTION_DDOT":0},{"OBJECT_NAME":"FLOCK 4BE-14","OBJECT_ID":"2024-149BB","EPOCH":"2026-03-05T05:21:56.608704","MEAN_MOTION":15.37489143,"ECCENTRICITY":0.00032595,"INCLINATION":97.3755,"RA_OF_ASC_NODE":147.3323,"ARG_OF_PERICENTER":310.3813,"MEAN_ANOMALY":49.7147,"EPHEMERIS_TYPE":0,"CLASSIFICATION_TYPE":"U","NORAD_CAT_ID":60517,"ELEMENT_SET_NO":999,"REV_AT_EPOCH":8633,"BSTAR":0.00057424217,"MEAN_MOTION_DOT":0.00021067,"MEAN_MOTION_DDOT":0},{"OBJECT_NAME":"FLOCK 4BE-1","OBJECT_ID":"2024-149BC","EPOCH":"2026-03-05T05:00:45.541152","MEAN_MOTION":15.38752835,"ECCENTRICITY":0.00030633,"INCLINATION":97.3826,"RA_OF_ASC_NODE":148.2487,"ARG_OF_PERICENTER":305.1814,"MEAN_ANOMALY":54.9144,"EPHEMERIS_TYPE":0,"CLASSIFICATION_TYPE":"U","NORAD_CAT_ID":60518,"ELEMENT_SET_NO":999,"REV_AT_EPOCH":8636,"BSTAR":0.00060230817,"MEAN_MOTION_DOT":0.00023032,"MEAN_MOTION_DDOT":0},{"OBJECT_NAME":"FLOCK 4BE-28","OBJECT_ID":"2024-149BD","EPOCH":"2026-03-05T04:13:33.667104","MEAN_MOTION":15.40763356,"ECCENTRICITY":0.00035306,"INCLINATION":97.379,"RA_OF_ASC_NODE":148.6377,"ARG_OF_PERICENTER":306.0671,"MEAN_ANOMALY":54.0248,"EPHEMERIS_TYPE":0,"CLASSIFICATION_TYPE":"U","NORAD_CAT_ID":60519,"ELEMENT_SET_NO":999,"REV_AT_EPOCH":8640,"BSTAR":0.00069404833,"MEAN_MOTION_DOT":0.00028384,"MEAN_MOTION_DDOT":0},{"OBJECT_NAME":"IPERDRONE.0","OBJECT_ID":"2024-149BE","EPOCH":"2026-03-05T05:00:48.008736","MEAN_MOTION":15.54123153,"ECCENTRICITY":0.00027998,"INCLINATION":97.3823,"RA_OF_ASC_NODE":153.3267,"ARG_OF_PERICENTER":251.8238,"MEAN_ANOMALY":108.2711,"EPHEMERIS_TYPE":0,"CLASSIFICATION_TYPE":"U","NORAD_CAT_ID":60520,"ELEMENT_SET_NO":999,"REV_AT_EPOCH":8670,"BSTAR":0.00086099967,"MEAN_MOTION_DOT":0.00056124,"MEAN_MOTION_DDOT":0},{"OBJECT_NAME":"TRANSPORTER-11 OBJECT BF","OBJECT_ID":"2024-149BF","EPOCH":"2026-03-05T05:12:21.029184","MEAN_MOTION":15.59204822,"ECCENTRICITY":0.0003194,"INCLINATION":97.3832,"RA_OF_ASC_NODE":154.5125,"ARG_OF_PERICENTER":252.8772,"MEAN_ANOMALY":107.2134,"EPHEMERIS_TYPE":0,"CLASSIFICATION_TYPE":"U","NORAD_CAT_ID":60521,"ELEMENT_SET_NO":999,"REV_AT_EPOCH":8677,"BSTAR":0.0010280334,"MEAN_MOTION_DOT":0.00081152,"MEAN_MOTION_DDOT":0},{"OBJECT_NAME":"CONNECTA IOT-2","OBJECT_ID":"2024-149BG","EPOCH":"2026-03-05T04:59:27.190176","MEAN_MOTION":15.22957186,"ECCENTRICITY":0.00056576,"INCLINATION":97.3899,"RA_OF_ASC_NODE":143.9812,"ARG_OF_PERICENTER":344.1129,"MEAN_ANOMALY":15.993,"EPHEMERIS_TYPE":0,"CLASSIFICATION_TYPE":"U","NORAD_CAT_ID":60522,"ELEMENT_SET_NO":999,"REV_AT_EPOCH":8606,"BSTAR":0.00028104392,"MEAN_MOTION_DOT":6.533e-5,"MEAN_MOTION_DDOT":0},{"OBJECT_NAME":"PTD-R (TYVAK-0127)","OBJECT_ID":"2024-149BH","EPOCH":"2026-03-05T05:18:54.770400","MEAN_MOTION":15.68258698,"ECCENTRICITY":0.00039357,"INCLINATION":97.3773,"RA_OF_ASC_NODE":157.2345,"ARG_OF_PERICENTER":256.6752,"MEAN_ANOMALY":103.407,"EPHEMERIS_TYPE":0,"CLASSIFICATION_TYPE":"U","NORAD_CAT_ID":60523,"ELEMENT_SET_NO":999,"REV_AT_EPOCH":8697,"BSTAR":0.0012433797,"MEAN_MOTION_DOT":0.00140962,"MEAN_MOTION_DDOT":0},{"OBJECT_NAME":"CONNECTA IOT-4","OBJECT_ID":"2024-149BJ","EPOCH":"2026-03-05T04:39:45.910368","MEAN_MOTION":15.38232999,"ECCENTRICITY":0.0004721,"INCLINATION":97.3848,"RA_OF_ASC_NODE":147.6253,"ARG_OF_PERICENTER":306.495,"MEAN_ANOMALY":53.586,"EPHEMERIS_TYPE":0,"CLASSIFICATION_TYPE":"U","NORAD_CAT_ID":60524,"ELEMENT_SET_NO":999,"REV_AT_EPOCH":8632,"BSTAR":0.00057493521,"MEAN_MOTION_DOT":0.00021613,"MEAN_MOTION_DDOT":0}]
